      2.10          N: GNSS NAV DATA                        RINEX VERSION / TYPE
fic2rin                                 08/26/2023 00:17:55 PGM / RUN BY / DATE
                                                            END OF HEADER
12 23  8 25 10  0  0.0 -.416994560510D-03 -.443378667114D-11  .000000000000D+00
     .460000000000D+02  .749062500000D+02  .442625579989D-08 -.390045073274D+00
     .378116965294D-05  .864362879656D-02  .901333987713D-05  .515356063271D+04
     .468000000000D+06 -.819563865662D-07 -.127798744935D+01  .745058059692D-07
     .964306159999D+00  .216468750000D+03  .138845813255D+01 -.802319134098D-08
    -.107147320259D-09  .100000000000D+01  .227600000000D+04  .000000000000D+00
     .240000000000D+01  .000000000000D+00 -.125728547573D-07  .460000000000D+02
     .460800000000D+06  .400000000000D+01
8  23  8 25 10  0  0.0 -.138906762004D-03 -.181898940355D-11  .000000000000D+00
     .370000000000D+02  .832500000000D+02  .466840874368D-08  .310196116854D+01
     .437535345554D-05  .857431511395D-02  .560656189919D-05  .515374244118D+04
     .468000000000D+06 -.152736902237D-06 -.329092900177D+00 -.465661287308D-07
     .957542149063D+00  .271031250000D+03  .270403064059D+00 -.803604901941D-08
     .982183769039D-10  .100000000000D+01  .227600000000D+04  .000000000000D+00
     .240000000000D+01  .000000000000D+00  .512227416039D-08  .370000000000D+02
     .460800000000D+06  .400000000000D+01
7  23  8 25 10  0  0.0  .859759747982D-04 -.106865627458D-10  .000000000000D+00
     .500000000000D+02  .968750000000D+00  .489377527395D-08  .252643735969D+00
     .167638063431D-06  .175313303480D-01  .774674117565D-05  .515372121048D+04
     .468000000000D+06 -.232830643654D-06 -.239329810693D+01  .307336449623D-06
     .950403154186D+00  .228562500000D+03 -.217527175111D+01 -.832677541505D-08
    -.134648465792D-09  .100000000000D+01  .227600000000D+04  .000000000000D+00
     .240000000000D+01  .000000000000D+00 -.111758708954D-07  .500000000000D+02
     .460800000000D+06  .400000000000D+01
4  23  8 25 10  0  0.0  .136106740683D-03  .113686837722D-10  .000000000000D+00
     .103000000000D+03 -.222500000000D+02  .443411327004D-08  .273982479350D+01
    -.121071934700D-05  .251402007416D-02  .817142426968D-05  .515362889099D+04
     .468000000000D+06 -.502914190292D-07  .287573907750D+01 -.279396772385D-07
     .963603090348D+00  .224156250000D+03 -.303011439435D+01 -.786139888739D-08
     .240367155114D-09  .100000000000D+01  .227600000000D+04  .000000000000D+00
     .240000000000D+01  .000000000000D+00 -.419095158577D-08  .103000000000D+03
     .460800000000D+06  .400000000000D+01
10 23  8 25 10  0  0.0 -.506858341396D-04 -.159161572810D-11  .000000000000D+00
     .118000000000D+03 -.985625000000D+02  .389873382648D-08 -.115101651753D+01
    -.522099435329D-05  .872480927501D-02  .815279781818D-05  .515369150162D+04
     .468000000000D+06  .244006514549D-06  .179254012569D+01  .484287738800D-07
     .979771196592D+00  .234218750000D+03 -.244359111950D+01 -.769960643380D-08
    -.310727228751D-10  .100000000000D+01  .227600000000D+04  .000000000000D+00
     .240000000000D+01  .000000000000D+00  .232830643654D-08  .118000000000D+03
     .460800000000D+06  .400000000000D+01
9  23  8 25 10  0  0.0 -.775773078203D-04  .100044417195D-10  .000000000000D+00
     .610000000000D+02 -.248437500000D+02  .455268963780D-08 -.264394030910D+01
    -.128336250782D-05  .265715469141D-02  .825896859169D-05  .515355486679D+04
     .468000000000D+06  .242143869400D-07  .281836138674D+01 -.745058059692D-08
     .956942563310D+00  .220062500000D+03  .194145126357D+01 -.790961518151D-08
     .210365905441D-09  .100000000000D+01  .227600000000D+04  .000000000000D+00
     .240000000000D+01  .000000000000D+00  .931322574615D-09  .610000000000D+02
     .460800000000D+06  .400000000000D+01
6  23  8 25 10  0  0.0  .561261083931D-03 -.568434188608D-11  .000000000000D+00
     .102000000000D+03 -.412500000000D+02  .399445209925D-08  .114697744021D+01
    -.224635004997D-05  .270246772561D-02  .397488474846D-05  .515372965431D+04
     .468000000000D+06  .000000000000D+00  .756770117622D+00 -.614672899246D-07
     .989483057678D+00  .314843750000D+03 -.787260093846D+00 -.793711632704D-08
    -.156077929844D-09  .100000000000D+01  .227600000000D+04  .000000000000D+00
     .240000000000D+01  .000000000000D+00  .372529029846D-08  .102000000000D+03
     .460800000000D+06  .400000000000D+01
11 23  8 25 10  0  0.0 -.336935743690D-03 -.177351466846D-10  .000000000000D+00
     .230000000000D+03 -.447812500000D+02  .451804533758D-08  .253651519167D+01
    -.235624611378D-05  .107618211769D-02  .408105552197D-05  .515358699417D+04
     .468000000000D+06 -.968575477600D-07  .796041468814D+00 -.167638063431D-07
     .965747102123D+00  .304000000000D+03 -.281447648197D+01 -.819319842246D-08
    -.996470078407D-10  .100000000000D+01  .227600000000D+04  .000000000000D+00
     .240000000000D+01  .000000000000D+00 -.838190317154D-08  .486000000000D+03
     .460800000000D+06  .400000000000D+01
29 23  8 25 10  0  0.0 -.608386471868D-03 -.682121026330D-12  .000000000000D+00
     .350000000000D+02  .815312500000D+02  .439304013061D-08  .304760467425D+01
     .429339706898D-05  .261597649660D-02  .433437526226D-05  .515372644615D+04
     .468000000000D+06 -.447034835815D-07 -.224407667389D+00  .428408384323D-07
     .975523556895D+00  .304875000000D+03  .253274844826D+01 -.811283793226D-08
     .142505935944D-09  .100000000000D+01  .227600000000D+04  .000000000000D+00
     .240000000000D+01  .000000000000D+00 -.977888703346D-08  .350000000000D+02
     .460800000000D+06  .400000000000D+01
24 23  8 25 10  0  0.0 -.300123821944D-03 -.112549969344D-10  .000000000000D+00
     .350000000000D+02  .571875000000D+01  .525307595456D-08  .125905816862D+01
     .242143869400D-06  .142988939770D-01  .779330730438D-05  .515363462067D+04
     .468000000000D+06 -.212341547012D-06 -.248552352892D+01  .745058059692D-07
     .934077850080D+00  .217343750000D+03  .912720431087D+00 -.844606609827D-08
    -.203937066226D-09  .100000000000D+01  .227600000000D+04  .000000000000D+00
     .240000000000D+01  .000000000000D+00  .232830643654D-08  .350000000000D+02
     .460800000000D+06  .400000000000D+01
16 23  8 25 10  0  0.0 -.463584903628D-03  .511590769747D-11  .000000000000D+00
     .240000000000D+02  .727812500000D+02  .427910681340D-08 -.220838015027D+01
     .336766242981D-05  .133357773302D-01  .920705497265D-05  .515365126610D+04
     .468000000000D+06  .968575477600D-07 -.125980615278D+01 -.119209289551D-06
     .963953574798D+00  .199343750000D+03  .791248148970D+00 -.768424865123D-08
    -.217866217860D-10  .100000000000D+01  .227600000000D+04  .000000000000D+00
     .240000000000D+01  .000000000000D+00 -.102445483208D-07  .240000000000D+02
     .460800000000D+06  .400000000000D+01
22 23  8 25 10  0  0.0  .134914647788D-03 -.750333128963D-11  .000000000000D+00
     .650000000000D+02  .718437500000D+02  .425696303388D-08 -.261719914384D+01
     .382773578167D-05  .153888829518D-01  .812672078609D-05  .515361763382D+04
     .468000000000D+06  .104308128357D-06 -.125648731685D+01  .197440385818D-06
     .963218051772D+00  .218281250000D+03 -.119430843720D+01 -.761210278892D-08
    -.610739725475D-10  .100000000000D+01  .227600000000D+04  .000000000000D+00
     .240000000000D+01  .000000000000D+00 -.111758708954D-07  .650000000000D+02
     .460800000000D+06  .400000000000D+01
17 23  8 25 10  0  0.0  .723168253899D-03  .454747350886D-12  .000000000000D+00
     .360000000000D+02  .699375000000D+02  .430946522081D-08  .308599701356D+01
     .368803739548D-05  .136751721147D-01  .461749732494D-05  .515357458305D+04
     .468000000000D+06  .320374965668D-06 -.238703389171D+00  .109896063805D-06
     .973221409527D+00  .293625000000D+03 -.140314411991D+01 -.789104297933D-08
     .367872466222D-10  .100000000000D+01  .227600000000D+04  .000000000000D+00
     .240000000000D+01  .000000000000D+00 -.111758708954D-07  .360000000000D+02
     .460800000000D+06  .400000000000D+01
13 23  8 25 10  0  0.0  .564407557249D-03  .466116034659D-11  .000000000000D+00
     .410000000000D+02 -.197812500000D+02  .424303388225D-08  .273889751264D+01
    -.106357038021D-05  .739539577626D-02  .795163214207D-05  .515366562462D+04
     .468000000000D+06  .465661287308D-07  .297998238761D+01 -.502914190292D-07
     .970529470562D+00  .230406250000D+03  .929108789888D+00 -.769282043685D-08
     .256439253153D-09  .100000000000D+01  .227600000000D+04  .000000000000D+00
     .240000000000D+01  .000000000000D+00 -.116415321827D-07  .410000000000D+02
     .460800000000D+06  .400000000000D+01
15 23  8 25 10  0  0.0  .710794702172D-04  .363797880709D-11  .000000000000D+00
     .104000000000D+03 -.354375000000D+02  .505735351622D-08  .210596466561D+01
    -.211037695408D-05  .153129259124D-01  .817887485027D-05  .515376737785D+04
     .468000000000D+06  .106170773506D-06  .269769027317D+01 -.279396772385D-06
     .933344888624D+00  .206375000000D+03  .123284677866D+01 -.807033616189D-08
     .289654922433D-09  .100000000000D+01  .227600000000D+04  .000000000000D+00
     .240000000000D+01  .000000000000D+00 -.107102096081D-07  .104000000000D+03
     .460800000000D+06  .400000000000D+01
31 23  8 25 10  0  0.0 -.222387257963D-03 -.568434188608D-12  .000000000000D+00
     .177000000000D+03  .771875000000D+01  .478662795370D-08 -.601732287605D+00
     .668689608574D-06  .104050842347D-01  .729039311409D-05  .515360486603D+04
     .468000000000D+06  .141561031342D-06 -.237293158672D+01  .949949026108D-07
     .954452689906D+00  .232000000000D+03  .571877182717D+00 -.816534011919D-08
    -.800033324599D-10  .100000000000D+01  .227600000000D+04  .000000000000D+00
     .240000000000D+01  .000000000000D+00 -.130385160446D-07  .177000000000D+03
     .460800000000D+06  .400000000000D+01
